ONEWEB-0291             
1 49081U 21075G   24146.55906413  .00000086  00000+0  18774-3 0  9990
2 49081  87.9159 155.6802 0002069  80.5059 279.6306 13.17650259135487
ONEWEB-0293             
1 49082U 21075H   24147.11592581  .00000039  00000+0  66614-4 0  9996
2 49082  87.9161 155.5839 0002129  82.9460 277.1914 13.17657007135575
ONEWEB-0294             
1 49083U 21075J   24147.01955875 -.00000293  00000+0 -85089-3 0  9995
2 49083  87.8911 140.4262 0002544  80.9700 279.1717 13.12447553136906
ONEWEB-0295             
1 49084U 21075K   24147.11749985  .00000006  00000+0 -18132-4 0  9997
2 49084  87.9168 155.5602 0001841  73.7724 286.3610 13.17652543135512
ONEWEB-0296             
1 49085U 21075L   24146.54465861 -.00000347  00000+0 -10010-2 0  9996
2 49085  87.8925 140.5225 0002138  66.2064 293.9289 13.12440365135857
ONEWEB-0297             
1 49086U 21075M   24147.03386092  .00000197  00000+0  51249-3 0  9991
2 49086  87.8934 140.4306 0001988  90.4581 269.6775 13.12443185137510
ONEWEB-0298             
1 49087U 21075N   24146.74099660  .00000177  00000+0  42362-3 0  9995
2 49087  87.9162 155.6527 0001912  85.8155 274.3195 13.17649744135522
ONEWEB-0299             
1 49088U 21075P   24147.12224471  .00000066  00000+0  13576-3 0  9991
2 49088  87.9159 155.5473 0001797  84.0251 276.1086 13.17651551135536
